[{"OBJECT_NAME":"STARLINK-36895","OBJECT_ID":"2026-040Z","EPOCH":"2026-03-09T22:00:01.999584","MEAN_MOTION":16.06735709,"ECCENTRICITY":9.106e-5,"INCLINATION":97.2764,"RA_OF_ASC_NODE":17.128,"ARG_OF_PERICENTER":102.4495,"MEAN_ANOMALY":289.4703,"EPHEMERIS_TYPE":0,"CLASSIFICATION_TYPE":"U","NORAD_CAT_ID":68038,"ELEMENT_SET_NO":999,"REV_AT_EPOCH":246,"BSTAR":-0.0015525013,"MEAN_MOTION_DOT":-0.01165806,"MEAN_MOTION_DDOT":0.00047129485},{"OBJECT_NAME":"SL-4 R\/B","OBJECT_ID":"2025-310B","EPOCH":"2026-03-09T22:17:27.678912","MEAN_MOTION":16.04687815,"ECCENTRICITY":0.01171166,"INCLINATION":97.9385,"RA_OF_ASC_NODE":88.8127,"ARG_OF_PERICENTER":159.54,"MEAN_ANOMALY":201.0629,"EPHEMERIS_TYPE":0,"CLASSIFICATION_TYPE":"U","NORAD_CAT_ID":67235,"ELEMENT_SET_NO":999,"REV_AT_EPOCH":1167,"BSTAR":0.00062072602,"MEAN_MOTION_DOT":0.01041733,"MEAN_MOTION_DDOT":2.575978e-6}]
